TIANMU-1 21             
1 58662U 23208C   26189.16966319  .00005894  00000+0  17339-3 0  9990
2 58662  97.4517 309.0126 0006064 231.9232 128.1464 15.35461771140787
TIANMU-1 22             
1 58663U 23208D   26189.18088457  .00004680  00000+0  15715-3 0  9999
2 58663  97.4511 305.5122 0002296 255.5495 104.5492 15.31358537140549
TIANMU-1 15             
1 58700U 24004A   26189.20058306  .00003388  00000+0  13119-3 0  9999
2 58700  97.4674  15.3913 0005699 259.3799 100.6798 15.26864057138988
TIANMU-1 16             
1 58701U 24004B   26189.19052156  .00003248  00000+0  12552-3 0  9990
2 58701  97.4620  14.6017 0004324 279.5167  80.5583 15.26966477138981
TIANMU-1 17             
1 58702U 24004C   26189.17599435  .00003232  00000+0  12491-3 0  9990
2 58702  97.4649  15.0799 0003879 287.3477  72.7337 15.26965239138974
TIANMU-1 18             
1 58703U 24004D   26189.21722958  .00003394  00000+0  13139-3 0  9993
2 58703  97.4666  15.3830 0003396 259.4090 100.6766 15.26881951138984
INSAT-3DS               
1 58990U 24033A   26189.08808222 -.00000141  00000+0  00000+0 0  9994
2 58990   0.0837  95.3554 0001081  22.7000 281.7700  1.00272301 47274
METEOR-M2 4             
1 59051U 24039A   26189.14534250 -.00000001  00000+0  19185-4 0  9997
2 59051  98.7021 148.1810 0008178 106.2864 253.9214 14.22431646122243
GOES 19                 
1 60133U 24119A   26189.12816138 -.00000233  00000+0  00000+0 0  9993
2 60133   0.0329 203.6122 0000466 345.8715  67.5473  1.00271472  7175
MTG-S1                  
1 64723U 25143A   26189.17475236  .00000007  00000+0  00000+0 0  9993
2 64723   0.5886 343.3685 0003317 262.1014 103.1286  1.00272556  3623
METOP-SGA1              
1 65159U 25172A   26188.71730619  .00000019  00000+0  29373-4 0  9999
2 65159  98.6633 248.0109 0007484 354.8269   5.2829 14.19818396 46700
FENGYUN 3H              
1 65815U 25219A   26188.82856618  .00000027  00000+0  33149-4 0  9995
2 65815  98.6771 129.1966 0001300  63.8305 296.3005 14.19924017 40319
