OBJECT_NAME,OBJECT_ID,EPOCH,MEAN_MOTION,ECCENTRICITY,INCLINATION,RA_OF_ASC_NODE,ARG_OF_PERICENTER,MEAN_ANOMALY,EPHEMERIS_TYPE,CLASSIFICATION_TYPE,NORAD_CAT_ID,ELEMENT_SET_NO,REV_AT_EPOCH,BSTAR,MEAN_MOTION_DOT,MEAN_MOTION_DDOT
TIANMU-1 21,2023-208C,2026-07-08T04:04:18.899616,15.35461771,.0006064,97.4517,309.0126,231.9232,128.1464,0,U,58662,999,14078,.17339E-3,.5894E-4,0
TIANMU-1 22,2023-208D,2026-07-08T04:20:28.426848,15.31358537,.0002296,97.4511,305.5122,255.5495,104.5492,0,U,58663,999,14054,.15715E-3,.468E-4,0
TIANMU-1 15,2024-004A,2026-07-08T04:48:50.376384,15.26864057,.0005699,97.4674,15.3913,259.3799,100.6798,0,U,58700,999,13898,.13119E-3,.3388E-4,0
TIANMU-1 16,2024-004B,2026-07-08T04:34:21.062784,15.26966477,.0004324,97.4620,14.6017,279.5167,80.5583,0,U,58701,999,13898,.12552E-3,.3248E-4,0
TIANMU-1 17,2024-004C,2026-07-08T04:13:25.911840,15.26965239,.0003879,97.4649,15.0799,287.3477,72.7337,0,U,58702,999,13897,.12491E-3,.3232E-4,0
TIANMU-1 18,2024-004D,2026-07-08T05:12:48.635712,15.26881951,.0003396,97.4666,15.3830,259.4090,100.6766,0,U,58703,999,13898,.13139E-3,.3394E-4,0
INSAT-3DS,2024-033A,2026-07-08T02:06:50.303808,1.00272301,.0001081,0.0837,95.3554,22.7000,281.7700,0,U,58990,999,4727,0,-.141E-5,0
METEOR-M2 4,2024-039A,2026-07-08T03:29:17.592000,14.22431646,.0008178,98.7021,148.1810,106.2864,253.9214,0,U,59051,999,12224,.19185E-4,-.1E-7,0
GOES 19,2024-119A,2026-07-08T03:04:33.143232,1.00271472,.0000466,0.0329,203.6122,345.8715,67.5473,0,U,60133,999,717,0,-.233E-5,0
MTG-S1,2025-143A,2026-07-08T04:11:38.603904,1.00272556,.0003317,0.5886,343.3685,262.1014,103.1286,0,U,64723,999,362,0,.7E-7,0
METOP-SGA1,2025-172A,2026-07-07T17:12:55.254816,14.19818396,.0007484,98.6633,248.0109,354.8269,5.2829,0,U,65159,999,4670,.29373E-4,.19E-6,0
FENGYUN 3H,2025-219A,2026-07-07T19:53:08.117952,14.19924017,.00013,98.6771,129.1966,63.8305,296.3005,0,U,65815,999,4031,.33149E-4,.27E-6,0
